{"type": "FeatureCollection", "features": [ {"type": "Feature", "properties": {"norad_id": 43207, "name": "BEIDOU-3 M4 (C22)", "group": "beidou", "lat": 55.46215064339734, "lon": 143.6038701478826, "alt_km": 21517.04118558715, "timestamp": "2025-12-05T11:32:56.284057+00:00", "meta": {"OBJECT_NAME": "BEIDOU-3 M4 (C22)", "OBJECT_ID": "2018-018A", "EPOCH": "2025-12-02T03:19:43.852800", "MEAN_MOTION": 1.86230706, "ECCENTRICITY": 0.00040749, "INCLINATION": 56.4768, "RA_OF_ASC_NODE": 69.6557, "ARG_OF_PERICENTER": 15.1369, "MEAN_ANOMALY": 344.8773, "EPHEMERIS_TYPE": 0, "CLASSIFICATION_TYPE": "U", "NORAD_CAT_ID": 43207, "ELEMENT_SET_NO": 999, "REV_AT_EPOCH": 5307, "BSTAR": 0, "MEAN_MOTION_DOT": -4.5e-07, "MEAN_MOTION_DDOT": 0}, "tle": {"line1": "1 43207U 18018A   25336.13870200 -.00000045  00000+0  00000+0 0  9992", "line2": "2 43207  56.4768  69.6557 0004074  15.1369 344.8773  1.86230706 53076"}}, "geometry": {"type": "Point", "coordinates": [143.6038701478826, 55.46215064339734]}}, {"type": "Feature", "properties": {"norad_id": 43208, "name": "BEIDOU-3 M3 (C21)", "group": "beidou", "lat": 29.65234332971991, "lon": 91.68698934727014, "alt_km": 21521.048543792203, "timestamp": "2025-12-05T11:32:56.284068+00:00", "meta": {"OBJECT_NAME": "BEIDOU-3 M3 (C21)", "OBJECT_ID": "2018-018B", "EPOCH": "2025-12-03T06:41:57.693408", "MEAN_MOTION": 1.86230862, "ECCENTRICITY": 0.0006282, "INCLINATION": 56.4772, "RA_OF_ASC_NODE": 69.6218, "ARG_OF_PERICENTER": 317.5873, "MEAN_ANOMALY": 42.3668, "EPHEMERIS_TYPE": 0, "CLASSIFICATION_TYPE": "U", "NORAD_CAT_ID": 43208, "ELEMENT_SET_NO": 999, "REV_AT_EPOCH": 5309, "BSTAR": 0, "MEAN_MOTION_DOT": -4.9e-07, "MEAN_MOTION_DDOT": 0}, "tle": {"line1": "1 43208U 18018B   25337.27913997 -.00000049  00000+0  00000+0 0  9994", "line2": "2 43208  56.4772  69.6218 0006282 317.5873  42.3668  1.86230862 53096"}}, "geometry": {"type": "Point", "coordinates": [91.68698934727014, 29.65234332971991]}}, {"type": "Feature", "properties": {"norad_id": 43245, "name": "BEIDOU-3 M9 (C29)", "group": "beidou", "lat": -50.42091524772976, "lon": -173.191507658804, "alt_km": 21529.222970316296, "timestamp": "2025-12-05T11:32:56.284079+00:00", "meta": {"OBJECT_NAME": "BEIDOU-3 M9 (C29)", "OBJECT_ID": "2018-029A", "EPOCH": "2025-12-01T08:20:14.784576", "MEAN_MOTION": 1.86227904, "ECCENTRICITY": 0.00017985, "INCLINATION": 54.3765, "RA_OF_ASC_NODE": 306.8658, "ARG_OF_PERICENTER": 272.1738, "MEAN_ANOMALY": 87.7976, "EPHEMERIS_TYPE": 0, "CLASSIFICATION_TYPE": "U", "NORAD_CAT_ID": 43245, "ELEMENT_SET_NO": 999, "REV_AT_EPOCH": 5221, "BSTAR": 0, "MEAN_MOTION_DOT": -5.8e-07, "MEAN_MOTION_DDOT": 0}, "tle": {"line1": "1 43245U 18029A   25335.34739334 -.00000058  00000+0  00000+0 0  9994", "line2": "2 43245  54.3765 306.8658 0001798 272.1738  87.7976  1.86227904 52214"}}, "geometry": {"type": "Point", "coordinates": [-173.191507658804, -50.42091524772976]}}, {"type": "Feature", "properties": {"norad_id": 43246, "name": "BEIDOU-3 M10 (C30)", "group": "beidou", "lat": -47.52649865083824, "lon": -104.8063167311325, "alt_km": 21528.839032182816, "timestamp": "2025-12-05T11:32:56.284090+00:00", "meta": {"OBJECT_NAME": "BEIDOU-3 M10 (C30)", "OBJECT_ID": "2018-029B", "EPOCH": "2025-12-02T08:33:31.669920", "MEAN_MOTION": 1.86228858, "ECCENTRICITY": 0.00039642, "INCLINATION": 54.3728, "RA_OF_ASC_NODE": 306.8573, "ARG_OF_PERICENTER": 359.3093, "MEAN_ANOMALY": 0.678, "EPHEMERIS_TYPE": 0, "CLASSIFICATION_TYPE": "U", "NORAD_CAT_ID": 43246, "ELEMENT_SET_NO": 999, "REV_AT_EPOCH": 5221, "BSTAR": 0, "MEAN_MOTION_DOT": -6.2e-07, "MEAN_MOTION_DDOT": 0}, "tle": {"line1": "1 43246U 18029B   25336.35661655 -.00000062  00000+0  00000+0 0  9992", "line2": "2 43246  54.3728 306.8573 0003964 359.3093   0.6780  1.86228858 52215"}}, "geometry": {"type": "Point", "coordinates": [-104.8063167311325, -47.52649865083824]}}, {"type": "Feature", "properties": {"norad_id": 43539, "name": "BEIDOU-2 IGSO-7 (C16)", "group": "beidou", "lat": -11.153043678566156, "lon": -7.367161616835334, "alt_km": 35498.47140920603, "timestamp": "2025-12-05T11:32:56.284102+00:00", "meta": {"OBJECT_NAME": "BEIDOU-2 IGSO-7 (C16)", "OBJECT_ID": "2018-057A", "EPOCH": "2025-12-04T10:49:25.352832", "MEAN_MOTION": 1.00259277, "ECCENTRICITY": 0.0092474, "INCLINATION": 55.1728, "RA_OF_ASC_NODE": 164.7444, "ARG_OF_PERICENTER": 235.1674, "MEAN_ANOMALY": 307.3303, "EPHEMERIS_TYPE": 0, "CLASSIFICATION_TYPE": "U", "NORAD_CAT_ID": 43539, "ELEMENT_SET_NO": 999, "REV_AT_EPOCH": 2717, "BSTAR": 0, "MEAN_MOTION_DOT": -3.5e-07, "MEAN_MOTION_DDOT": 0}, "tle": {"line1": "1 43539U 18057A   25338.45098788 -.00000035  00000+0  00000+0 0  9992", "line2": "2 43539  55.1728 164.7444 0092474 235.1674 307.3303  1.00259277 27177"}}, "geometry": {"type": "Point", "coordinates": [-7.367161616835334, -11.153043678566156]}}, {"type": "Feature", "properties": {"norad_id": 43581, "name": "BEIDOU-3 M5 (C23)", "group": "beidou", "lat": 28.2462027024683, "lon": -14.017074911680462, "alt_km": 21530.07280783936, "timestamp": "2025-12-05T11:32:56.284113+00:00", "meta": {"OBJECT_NAME": "BEIDOU-3 M5 (C23)", "OBJECT_ID": "2018-062A", "EPOCH": "2025-12-04T04:36:50.793120", "MEAN_MOTION": 1.86228551, "ECCENTRICITY": 0.0002115, "INCLINATION": 54.0891, "RA_OF_ASC_NODE": 188.9344, "ARG_OF_PERICENTER": 351.3867, "MEAN_ANOMALY": 8.7024, "EPHEMERIS_TYPE": 0, "CLASSIFICATION_TYPE": "U", "NORAD_CAT_ID": 43581, "ELEMENT_SET_NO": 999, "REV_AT_EPOCH": 5000, "BSTAR": 0, "MEAN_MOTION_DOT": 1.07e-06, "MEAN_MOTION_DDOT": 0}, "tle": {"line1": "1 43581U 18062A   25338.19225455  .00000107  00000+0  00000+0 0  9998", "line2": "2 43581  54.0891 188.9344 0002115 351.3867   8.7024  1.86228551 50003"}}, "geometry": {"type": "Point", "coordinates": [-14.017074911680462, 28.2462027024683]}}, {"type": "Feature", "properties": {"norad_id": 43582, "name": "BEIDOU-3 M6 (C24)", "group": "beidou", "lat": -42.190421920639494, "lon": 49.960473857832156, "alt_km": 21554.29110279538, "timestamp": "2025-12-05T11:32:56.284125+00:00", "meta": {"OBJECT_NAME": "BEIDOU-3 M6 (C24)", "OBJECT_ID": "2018-062B", "EPOCH": "2025-12-04T01:19:44.398272", "MEAN_MOTION": 1.86229587, "ECCENTRICITY": 0.0007695, "INCLINATION": 54.0887, "RA_OF_ASC_NODE": 188.9281, "ARG_OF_PERICENTER": 45.9534, "MEAN_ANOMALY": 314.2033, "EPHEMERIS_TYPE": 0, "CLASSIFICATION_TYPE": "U", "NORAD_CAT_ID": 43582, "ELEMENT_SET_NO": 999, "REV_AT_EPOCH": 5000, "BSTAR": 0, "MEAN_MOTION_DOT": 1.09e-06, "MEAN_MOTION_DDOT": 0}, "tle": {"line1": "1 43582U 18062B   25338.05537498  .00000109  00000+0  00000+0 0  9999", "line2": "2 43582  54.0887 188.9281 0007695  45.9534 314.2033  1.86229587 50009"}}, "geometry": {"type": "Point", "coordinates": [49.960473857832156, -42.190421920639494]}}, {"type": "Feature", "properties": {"norad_id": 43602, "name": "BEIDOU-3 M12 (C26)", "group": "beidou", "lat": -53.45003926390589, "lon": 110.6094376667578, "alt_km": 21548.033719346757, "timestamp": "2025-12-05T11:32:56.284136+00:00", "meta": {"OBJECT_NAME": "BEIDOU-3 M12 (C26)", "OBJECT_ID": "2018-067A", "EPOCH": "2025-12-03T23:50:04.646976", "MEAN_MOTION": 1.86227631, "ECCENTRICITY": 0.0009142, "INCLINATION": 54.1831, "RA_OF_ASC_NODE": 187.6601, "ARG_OF_PERICENTER": 40.5881, "MEAN_ANOMALY": 319.5721, "EPHEMERIS_TYPE": 0, "CLASSIFICATION_TYPE": "U", "NORAD_CAT_ID": 43602, "ELEMENT_SET_NO": 999, "REV_AT_EPOCH": 4948, "BSTAR": 0, "MEAN_MOTION_DOT": 1.1e-06, "MEAN_MOTION_DDOT": 0}, "tle": {"line1": "1 43602U 18067A   25337.99310934  .00000110  00000+0  00000+0 0  9995", "line2": "2 43602  54.1831 187.6601 0009142  40.5881 319.5721  1.86227631 49489"}}, "geometry": {"type": "Point", "coordinates": [110.6094376667578, -53.45003926390589]}}, {"type": "Feature", "properties": {"norad_id": 43603, "name": "BEIDOU-3 M11 (C25)", "group": "beidou", "lat": -6.188606425757387, "lon": 12.075049799166038, "alt_km": 21543.13257729815, "timestamp": "2025-12-05T11:32:56.284147+00:00", "meta": {"OBJECT_NAME": "BEIDOU-3 M11 (C25)", "OBJECT_ID": "2018-067B", "EPOCH": "2025-12-04T03:03:44.195904", "MEAN_MOTION": 1.86227126, "ECCENTRICITY": 0.0005572, "INCLINATION": 54.1804, "RA_OF_ASC_NODE": 187.6197, "ARG_OF_PERICENTER": 36.31, "MEAN_ANOMALY": 323.8191, "EPHEMERIS_TYPE": 0, "CLASSIFICATION_TYPE": "U", "NORAD_CAT_ID": 43603, "ELEMENT_SET_NO": 999, "REV_AT_EPOCH": 4951, "BSTAR": 0, "MEAN_MOTION_DOT": 1.09e-06, "MEAN_MOTION_DDOT": 0}, "tle": {"line1": "1 43603U 18067B   25338.12759486  .00000109  00000+0  00000+0 0  9999", "line2": "2 43603  54.1804 187.6197 0005572  36.3100 323.8191  1.86227126 49512"}}, "geometry": {"type": "Point", "coordinates": [12.075049799166038, -6.188606425757387]}}, {"type": "Feature", "properties": {"norad_id": 43622, "name": "BEIDOU-3 M13 (C32)", "group": "beidou", "lat": -29.806363864948366, "lon": -88.63142532337548, "alt_km": 21529.743148681155, "timestamp": "2025-12-05T11:32:56.284158+00:00", "meta": {"OBJECT_NAME": "BEIDOU-3 M13 (C32)", "OBJECT_ID": "2018-072A", "EPOCH": "2025-12-03T13:07:53.541408", "MEAN_MOTION": 1.86230692, "ECCENTRICITY": 0.00056735, "INCLINATION": 56.4512, "RA_OF_ASC_NODE": 69.1249, "ARG_OF_PERICENTER": 298.6305, "MEAN_ANOMALY": 61.3164, "EPHEMERIS_TYPE": 0, "CLASSIFICATION_TYPE": "U", "NORAD_CAT_ID": 43622, "ELEMENT_SET_NO": 999, "REV_AT_EPOCH": 4901, "BSTAR": 0, "MEAN_MOTION_DOT": -5e-07, "MEAN_MOTION_DDOT": 0}, "tle": {"line1": "1 43622U 18072A   25337.54714747 -.00000050  00000+0  00000+0 0  9998", "line2": "2 43622  56.4512  69.1249 0005673 298.6305  61.3164  1.86230692 49019"}}, "geometry": {"type": "Point", "coordinates": [-88.63142532337548, -29.806363864948366]}}]}